NORAD_CAT_ID,OBJECT_NAME,OBJECT_TYPE,EPOCH,MEAN_MOTION,ECCENTRICITY,INCLINATION,RA_OF_ASC_NODE,ARG_OF_PERICENTER,MEAN_ANOMALY,BSTAR,MEAN_MOTION_DOT,MEAN_MOTION_DDOT,TLE_LINE0,TLE_LINE1,TLE_LINE2,SEMIMAJOR_AXIS,PERIOD,APOGEE,PERIGEE,DECAYED
52374.0,STARLINK-3762,PAYLOAD,2023-12-27 18:57:58,15.08844527,0.0001338,53.2159,193.4787,90.4998,269.6147,6.9965e-05,8.26e-06,0.0,0 STARLINK-3762,1 52374U 22045AV  23361.79025895  .00000826  00000-0  69965-4 0  9999,2 52374  53.2159 193.4787 0001338  90.4998 269.6147 15.08844527 94711,6917.867,95.437,540.657,538.806,0.0
52374.0,STARLINK-3762,PAYLOAD,2023-12-28 12:27:13,15.08843562,0.0001333,53.2161,190.2072,87.6691,272.4454,1.5867e-05,-3.5e-07,0.0,0 STARLINK-3762,1 52374U 22045AV  23362.51890153 -.00000035  00000-0  15867-4 0  9992,2 52374  53.2161 190.2072 0001333  87.6691 272.4454 15.08843562 94822,6917.87,95.437,540.657,538.812,0.0
52374.0,STARLINK-3762,PAYLOAD,2023-12-28 18:48:45,15.08839281,0.0001376,53.216,189.0182,85.5831,274.5318,7.4457e-05,8.97e-06,0.0,0 STARLINK-3762,1 52374U 22045AV  23362.78386230  .00000897  00000-0  74457-4 0  9992,2 52374  53.2160 189.0182 0001376  85.5831 274.5318 15.08839281 94868,6917.883,95.438,540.699,538.796,0.0
52374.0,STARLINK-3762,PAYLOAD,2023-12-29 12:17:59,15.08843771,0.0001446,53.2169,185.7476,81.213,278.9026,8.7248e-05,1.101e-05,0.0,0 STARLINK-3762,1 52374U 22045AV  23363.51249904  .00001101  00000-0  87248-4 0  9991,2 52374  53.2169 185.7476 0001446  81.2130 278.9026 15.08843771 94974,6917.869,95.437,540.734,538.734,0.0
52374.0,STARLINK-3762,PAYLOAD,2023-12-29 18:39:32,15.08845349,0.0001445,53.216,184.5581,72.9703,287.1448,0.0001043,1.373e-05,0.0,0 STARLINK-3762,1 52374U 22045AV  23363.77745691  .00001373  00000-0  10430-3 0  9992,2 52374  53.2160 184.5581 0001445  72.9703 287.1448 15.08845349 95010,6917.864,95.437,540.729,538.729,0.0
52374.0,STARLINK-3762,PAYLOAD,2023-12-30 18:30:19,15.0884191,0.0001331,53.2156,180.0969,85.6569,274.4575,6.6059e-05,7.64e-06,0.0,0 STARLINK-3762,1 52374U 22045AV  23364.77105778  .00000764  00000-0  66059-4 0  9991,2 52374  53.2156 180.0969 0001331  85.6569 274.4575 15.08841910 95167,6917.875,95.437,540.66,538.819,0.0
52374.0,STARLINK-3762,PAYLOAD,2023-12-31 16:45:43,15.08839293,0.0001301,53.2157,175.9336,89.1842,270.9299,-2.9342e-06,-3.35e-06,0.0,0 STARLINK-3762,1 52374U 22045AV  23365.69842016 -.00000335  00000-0 -29342-5 0  9997,2 52374  53.2157 175.9336 0001301  89.1842 270.9299 15.08839293 95300,6917.883,95.438,540.648,538.848,0.0
52374.0,STARLINK-3762,PAYLOAD,2024-01-01 15:01:07,15.08837352,0.0001314,53.2164,171.7699,79.8692,280.2449,4.0428e-05,3.56e-06,0.0,0 STARLINK-3762,1 52374U 22045AV  24001.62578095  .00000356  00000-0  40428-4 0  9999,2 52374  53.2164 171.7699 0001314  79.8692 280.2449 15.08837352 95447,6917.888,95.438,540.662,538.844,0.0
52374.0,STARLINK-3762,PAYLOAD,2024-01-01 18:11:55,15.08819861,0.0001154,53.2165,171.1748,87.1622,272.9502,-0.00010684,-1.987e-05,0.0,0 STARLINK-3762,1 52374U 22045AV  24001.75827665 -.00001987  00000-0 -10684-3 0  9996,2 52374  53.2165 171.1748 0001154  87.1622 272.9502 15.08819861 95469,6917.942,95.439,540.605,539.009,0.0
52374.0,STARLINK-3762,PAYLOAD,2024-01-02 14:51:56,15.08822131,0.0001208,53.217,167.3087,91.9444,268.1686,-3.8131e-05,-8.94e-06,0.0,0 STARLINK-3762,1 52374U 22045AV  24002.61940253 -.00000894  00000-0 -38131-4 0  9995,2 52374  53.2170 167.3087 0001208  91.9444 268.1686 15.08822131 95591,6917.935,95.439,540.636,538.964,0.0
52374.0,STARLINK-3762,PAYLOAD,2024-01-02 18:02:42,15.08826323,0.0001125,53.2165,166.7141,91.7531,268.359,-1.174e-05,-4.75e-06,0.0,0 STARLINK-3762,1 52374U 22045AV  24002.75188070 -.00000475  00000-0 -11740-4 0  9993,2 52374  53.2165 166.7141 0001125  91.7531 268.3590 15.08826323 95618,6917.922,95.438,540.565,539.009,0.0
52374.0,STARLINK-3762,PAYLOAD,2024-01-03 14:42:43,15.08823629,0.0001279,53.2168,162.8484,86.2903,273.8236,0.00019669,2.842e-05,0.0,0 STARLINK-3762,1 52374U 22045AV  24003.61300317  .00002842  00000-0  19669-3 0  9994,2 52374  53.2168 162.8484 0001279  86.2903 273.8236 15.08823629 95748,6917.93,95.439,540.68,538.911,0.0
52374.0,STARLINK-3762,PAYLOAD,2024-01-03 17:53:29,15.08838736,0.0001095,53.2168,162.2538,81.6461,278.4655,6.8053e-05,7.95e-06,0.0,0 STARLINK-3762,1 52374U 22045AV  24003.74547876  .00000795  00000-0  68053-4 0  9998,2 52374  53.2168 162.2538 0001095  81.6461 278.4655 15.08838736 95769,6917.884,95.438,540.507,538.992,0.0
52374.0,STARLINK-3762,PAYLOAD,2024-01-04 14:33:29,15.08848018,0.0001042,53.2169,158.3876,85.8095,274.3016,0.00025251,3.734e-05,0.0,0 STARLINK-3762,1 52374U 22045AV  24004.60659241  .00003734  00000-0  25251-3 0  9992,2 52374  53.2169 158.3876 0001042  85.8095 274.3016 15.08848018 95896,6917.856,95.437,540.442,539.0,0.0
52374.0,STARLINK-3762,PAYLOAD,2024-01-04 19:19:38,15.08855842,0.0001098,53.2161,157.4952,81.7022,278.4095,0.00037814,5.738e-05,0.0,0 STARLINK-3762,1 52374U 22045AV  24004.80531190  .00005738  00000-0  37814-3 0  9990,2 52374  53.2161 157.4952 0001098  81.7022 278.4095 15.08855842 95928,6917.832,95.437,540.457,538.937,0.0
52374.0,STARLINK-3762,PAYLOAD,2024-01-05 09:38:07,15.08845818,0.0001128,53.2155,154.8171,113.4314,246.6796,7.8324e-05,9.59e-06,0.0,0 STARLINK-3762,1 52374U 22045AV  24005.40147522  .00000959  00000-0  78324-4 0  9991,2 52374  53.2155 154.8171 0001128 113.4314 246.6796 15.08845818 96014,6917.863,95.437,540.508,538.947,0.0
52374.0,STARLINK-3762,PAYLOAD,2024-01-05 14:24:16,15.08848839,0.0001158,53.2153,153.9277,89.9158,270.1967,0.00010574,1.396e-05,0.0,0 STARLINK-3762,1 52374U 22045AV  24005.60019275  .00001396  00000-0  10574-3 0  9994,2 52374  53.2153 153.9277 0001158  89.9158 270.1967 15.08848839 96046,6917.853,95.437,540.519,538.917,0.0
52374.0,STARLINK-3762,PAYLOAD,2024-01-05 15:59:39,15.08849887,0.0001154,53.2155,153.6296,100.219,259.8932,0.00011671,1.571e-05,0.0,0 STARLINK-3762,1 52374U 22045AV  24005.66643156  .00001571  00000-0  11671-3 0  9995,2 52374  53.2155 153.6296 0001154 100.2190 259.8932 15.08849887 96056,6917.85,95.437,540.513,538.917,0.0
52374.0,STARLINK-3762,PAYLOAD,2024-01-06 09:28:54,15.08850044,0.0001236,53.2153,150.3607,74.6409,285.472,2.8256e-05,1.62e-06,0.0,0 STARLINK-3762,1 52374U 22045AV  24006.39506978  .00000162  00000-0  28256-4 0  9999,2 52374  53.2153 150.3607 0001236  74.6409 285.4720 15.08850044 96161,6917.85,95.437,540.57,538.86,0.0
52374.0,STARLINK-3762,PAYLOAD,2024-01-06 19:01:12,15.08851759,0.0001094,53.2154,148.5754,92.5354,267.5763,0.00013819,1.913e-05,0.0,0 STARLINK-3762,1 52374U 22045AV  24006.79250605  .00001913  00000-0  13819-3 0  9999,2 52374  53.2154 148.5754 0001094  92.5354 267.5763 15.08851759 96223,6917.844,95.437,540.466,538.953,0.0
52374.0,STARLINK-3762,PAYLOAD,2024-01-07 12:30:27,15.08843442,0.0001424,53.2152,145.3037,107.2022,252.9126,9.7008e-05,1.256e-05,0.0,0 STARLINK-3762,1 52374U 22045AV  24007.52114861  .00001256  00000-0  97008-4 0  9997,2 52374  53.2152 145.3037 0001424 107.2022 252.9126 15.08843442 96336,6917.87,95.437,540.72,538.75,0.0
52374.0,STARLINK-3762,PAYLOAD,2024-01-07 14:05:50,15.08843315,0.0001215,53.2153,145.0067,97.2528,262.8602,9.6876e-05,1.254e-05,0.0,0 STARLINK-3762,1 52374U 22045AV  24007.58738910  .00001254  00000-0  96876-4 0  9990,2 52374  53.2153 145.0067 0001215  97.2528 262.8602 15.08843315 96343,6917.87,95.437,540.576,538.895,0.0
52374.0,STARLINK-3762,PAYLOAD,2024-01-07 15:41:13,15.08843582,0.0001312,53.2154,144.7092,105.3785,254.7352,8.6258e-05,1.085e-05,0.0,0 STARLINK-3762,1 52374U 22045AV  24007.65362852  .00001085  00000-0  86258-4 0  9991,2 52374  53.2154 144.7092 0001312 105.3785 254.7352 15.08843582 96351,6917.869,95.437,540.642,538.827,0.0
52374.0,STARLINK-3762,PAYLOAD,2024-01-08 13:56:37,15.08844257,0.0001266,53.2159,140.546,96.5233,263.5903,5.2187e-05,5.43e-06,0.0,0 STARLINK-3762,1 52374U 22045AV  24008.58098769  .00000543  00000-0  52187-4 0  9999,2 52374  53.2159 140.5460 0001266  96.5233 263.5903 15.08844257 96491,6917.867,95.437,540.608,538.857,0.0
52374.0,STARLINK-3762,PAYLOAD,2024-01-09 13:47:24,15.08845154,0.000132,53.216,136.087,83.4656,276.6486,0.00012131,1.644e-05,0.0,0 STARLINK-3762,1 52374U 22045AV  24009.57458697  .00001644  00000-0  12131-3 0  9996,2 52374  53.2160 136.0870 0001320  83.4656 276.6486 15.08845154 96648,6917.865,95.437,540.643,538.816,0.0
52374.0,STARLINK-3762,PAYLOAD,2024-01-09 18:33:33,15.08849842,0.0001315,53.2161,135.194,92.378,267.7363,0.00017223,2.455e-05,0.0,0 STARLINK-3762,1 52374U 22045AV  24009.77330333  .00002455  00000-0  17223-3 0  9992,2 52374  53.2161 135.1940 0001315  92.3780 267.7363 15.08849842 96674,6917.85,95.437,540.625,538.806,0.0
52374.0,STARLINK-3762,PAYLOAD,2024-01-10 10:27:25,15.08835489,0.0001424,53.2162,132.2214,70.6006,289.514,-6.6001e-06,-3.93e-06,0.0,0 STARLINK-3762,1 52374U 22045AV  24010.43571211 -.00000393  00000-0 -66001-5 0  9990,2 52374  53.2162 132.2214 0001424  70.6006 289.5140 15.08835489 96776,6917.894,95.438,540.744,538.774,0.0
52374.0,STARLINK-3762,PAYLOAD,2024-01-10 13:38:11,15.0884116,0.0001407,53.2157,131.6234,115.4354,244.6784,-2.222e-05,-6.42e-06,0.0,0 STARLINK-3762,1 52374U 22045AV  24010.56818659 -.00000642  00000-0 -22220-4 0  9995,2 52374  53.2157 131.6234 0001407 115.4354 244.6784 15.08841160 96791,6917.877,95.437,540.715,538.768,0.0
52374.0,STARLINK-3762,PAYLOAD,2024-01-11 13:28:58,15.08848517,0.0001322,53.2157,127.167,80.2669,279.8473,0.00015085,2.114e-05,0.0,0 STARLINK-3762,1 52374U 22045AV  24011.56178691  .00002114  00000-0  15085-3 0  9995,2 52374  53.2157 127.1670 0001322  80.2669 279.8473 15.08848517 96944,6917.854,95.437,540.634,538.805,0.0
52374.0,STARLINK-3762,PAYLOAD,2024-01-12 11:44:23,15.08835375,0.0002337,53.216,123.008,42.8776,317.2398,0.00015351,2.155e-05,0.0,0 STARLINK-3762,1 52374U 22045AV  24012.48915791  .00002155  00000-0  15351-3 0  9998,2 52374  53.2160 123.0080 0002337  42.8776 317.2398 15.08835375 97085,6917.895,95.438,541.376,538.143,0.0
